{"type":"FeatureCollection","features":[{"type":"Feature","properties":{"GID_3":"IDN.10.28.1_1","GID_0":"IDN","COUNTRY":"Indonesia","GID_1":"IDN.10_1","NAME_1":"JawaTengah","NL_NAME_1":"NA","GID_2":"IDN.10.28_1","NAME_2":"Semarang","NL_NAME_2":"NA","NAME_3":"Ambarawa","VARNAME_3":"NA","NL_NAME_3":"NA","TYPE_3":"Kecamatan","ENGTYPE_3":"Sub-district","CC_3":"3322100","HASC_3":"NA"},"geometry":{"type":"MultiPolygon","coordinates":[[[[110.4065,-7.2844],[110.4012,-7.2835],[110.401,-7.2811],[110.397,-7.2805],[110.391,-7.2807],[110.391,-7.2825],[110.3895,-7.2823],[110.3895,-7.2808],[110.3868,-7.2802],[110.3843,-7.2697],[110.3809,-7.2658],[110.3757,-7.2633],[110.3664,-7.2643],[110.3628,-7.261],[110.3611,-7.2569],[110.3618,-7.2505],[110.3581,-7.2427],[110.3592,-7.2403],[110.3678,-7.2392],[110.3683,-7.2375],[110.3729,-7.2367],[110.3854,-7.2422],[110.3863,-7.2396],[110.3846,-7.2378],[110.3886,-7.2357],[110.3875,-7.2339],[110.3928,-7.2364],[110.3947,-7.2327],[110.3979,-7.2308],[110.4035,-7.2364],[110.4045,-7.2391],[110.4029,-7.2415],[110.4066,-7.2454],[110.4082,-7.2454],[110.4084,-7.2415],[110.4093,-7.2437],[110.4138,-7.2466],[110.4217,-7.2495],[110.4267,-7.2543],[110.43,-7.2686],[110.4195,-7.2708],[110.4215,-7.274],[110.4193,-7.2745],[110.4183,-7.2774],[110.4235,-7.2819],[110.4225,-7.285],[110.4065,-7.2844]]]]}},{"type":"Feature","properties":{"GID_3":"IDN.10.28.2_1","GID_0":"IDN","COUNTRY":"Indonesia","GID_1":"IDN.10_1","NAME_1":"JawaTengah","NL_NAME_1":"NA","GID_2":"IDN.10.28_1","NAME_2":"Semarang","NL_NAME_2":"NA","NAME_3":"Bancak","VARNAME_3":"NA","NL_NAME_3":"NA","TYPE_3":"Kecamatan","ENGTYPE_3":"Sub-district","CC_3":"3322121","HASC_3":"NA"},"geometry":{"type":"MultiPolygon","coordinates":[[[[110.5919,-7.2825],[110.5901,-7.2863],[110.5933,-7.2952],[110.5905,-7.2978],[110.5867,-7.2956],[110.584,-7.297],[110.5803,-7.2943],[110.5742,-7.2954],[110.5664,-7.2996],[110.5638,-7.2968],[110.5653,-7.2931],[110.564,-7.2819],[110.562,-7.28],[110.562,-7.2774],[110.5667,-7.2737],[110.5716,-7.2758],[110.5733,-7.2743],[110.5753,-7.2767],[110.577,-7.276],[110.5781,-7.2702],[110.5805,-7.2671],[110.5799,-7.2652],[110.5773,-7.2655],[110.5777,-7.26],[110.5702,-7.2529],[110.571,-7.2498],[110.5636,-7.25],[110.5654,-7.2434],[110.5689,-7.2398],[110.5674,-7.238],[110.5676,-7.2324],[110.5727,-7.2311],[110.5749,-7.232],[110.5769,-7.2296],[110.5812,-7.2324],[110.5844,-7.2311],[110.5844,-7.2292],[110.5897,-7.228],[110.5892,-7.2253],[110.5935,-7.2241],[110.5982,-7.2184],[110.5987,-7.2147],[110.6013,-7.2136],[110.6013,-7.2107],[110.6033,-7.2083],[110.6092,-7.2093],[110.6116,-7.2056],[110.6126,-7.2073],[110.6116,-7.2123],[110.6164,-7.2177],[110.6241,-7.2171],[110.6273,-7.2183],[110.624,-7.234],[110.6283,-7.2474],[110.6339,-7.2537],[110.6363,-7.2639],[110.6356,-7.2653],[110.6309,-7.2657],[110.625,-7.2708],[110.621,-7.2685],[110.6221,-7.2769],[110.6246,-7.2788],[110.6239,-7.2856],[110.6165,-7.2862],[110.6125,-7.2828],[110.613,-7.2803],[110.6071,-7.2728],[110.6051,-7.2734],[110.6048,-7.2758],[110.6019,-7.2784],[110.6015,-7.2824],[110.5919,-7.2825]]]]}},{"type":"Feature","properties":{"GID_3":"IDN.10.28.3_1","GID_0":"IDN","COUNTRY":"Indonesia","GID_1":"IDN.10_1","NAME_1":"JawaTengah","NL_NAME_1":"NA","GID_2":"IDN.10.28_1","NAME_2":"Semarang","NL_NAME_2":"NA","NAME_3":"Bandungan","VARNAME_3":"NA","NL_NAME_3":"NA","TYPE_3":"Kecamatan","ENGTYPE_3":"Sub-district","CC_3":"3322101","HASC_3":"NA"},"geometry":{"type":"MultiPolygon","coordinates":[[[[110.3611,-7.2491],[110.3621,-7.2529],[110.3611,-7.2569],[110.3506,-7.2656],[110.3426,-7.2559],[110.3374,-7.255],[110.335,-7.2525],[110.3294,-7.2506],[110.3231,-7.2505],[110.3242,-7.2442],[110.3254,-7.242],[110.3289,-7.2408],[110.3301,-7.236],[110.3299,-7.2334],[110.3276,-7.2312],[110.33,-7.2257],[110.3335,-7.2222],[110.3348,-7.2137],[110.3385,-7.2091],[110.3395,-7.2016],[110.3486,-7.1834],[110.3535,-7.1864],[110.3625,-7.1868],[110.3731,-7.1941],[110.3985,-7.1981],[110.4003,-7.2024],[110.4078,-7.2061],[110.4053,-7.209],[110.4028,-7.2085],[110.3996,-7.211],[110.4003,-7.2208],[110.4101,-7.2241],[110.4027,-7.2359],[110.3979,-7.2308],[110.3947,-7.2327],[110.3928,-7.2364],[110.3875,-7.2339],[110.3886,-7.2357],[110.3846,-7.2378],[110.3863,-7.2396],[110.3854,-7.2422],[110.3729,-7.2367],[110.3683,-7.2375],[110.3678,-7.2392],[110.3615,-7.2394],[110.3581,-7.2427],[110.3611,-7.2491]]]]}},{"type":"Feature","properties":{"GID_3":"IDN.10.28.4_1","GID_0":"IDN","COUNTRY":"Indonesia","GID_1":"IDN.10_1","NAME_1":"JawaTengah","NL_NAME_1":"NA","GID_2":"IDN.10.28_1","NAME_2":"Semarang","NL_NAME_2":"NA","NAME_3":"Banyubiru","VARNAME_3":"NA","NL_NAME_3":"NA","TYPE_3":"Kecamatan","ENGTYPE_3":"Sub-district","CC_3":"3322070","HASC_3":"NA"},"geometry":{"type":"MultiPolygon","coordinates":[[[[110.449,-7.3393],[110.4514,-7.3448],[110.4507,-7.3494],[110.4487,-7.3515],[110.4452,-7.3518],[110.4408,-7.3589],[110.4362,-7.3606],[110.4332,-7.3582],[110.4334,-7.3539],[110.4303,-7.3505],[110.4293,-7.3462],[110.4272,-7.3512],[110.4257,-7.3498],[110.4218,-7.3501],[110.4164,-7.3551],[110.3993,-7.3602],[110.3907,-7.353],[110.3851,-7.3525],[110.3815,-7.3541],[110.3793,-7.3466],[110.3768,-7.3453],[110.3776,-7.3384],[110.3786,-7.3366],[110.3804,-7.3377],[110.3791,-7.3346],[110.3775,-7.3342],[110.3783,-7.3243],[110.3839,-7.316],[110.3896,-7.311],[110.3874,-7.3063],[110.3879,-7.3011],[110.3837,-7.3027],[110.3809,-7.2973],[110.3812,-7.2918],[110.3846,-7.2919],[110.3848,-7.2904],[110.3799,-7.2898],[110.3797,-7.288],[110.3843,-7.2843],[110.3851,-7.2822],[110.3834,-7.2816],[110.3837,-7.2803],[110.3863,-7.2813],[110.3876,-7.28],[110.391,-7.2825],[110.391,-7.2807],[110.397,-7.2805],[110.401,-7.2811],[110.4012,-7.2835],[110.404,-7.2842],[110.4231,-7.2852],[110.4161,-7.286],[110.4151,-7.2899],[110.419,-7.2991],[110.4232,-7.2989],[110.4259,-7.3015],[110.4242,-7.3077],[110.4294,-7.3028],[110.4315,-7.2984],[110.4385,-7.2959],[110.4433,-7.3039],[110.4425,-7.3146],[110.4452,-7.316],[110.4443,-7.32],[110.4458,-7.3205],[110.4444,-7.3313],[110.4464,-7.3314],[110.449,-7.3393]]]]}},{"type":"Feature","properties":{"GID_3":"IDN.10.28.5_1","GID_0":"IDN","COUNTRY":"Indonesia","GID_1":"IDN.10_1","NAME_1":"JawaTengah","NL_NAME_1":"NA","GID_2":"IDN.10.28_1","NAME_2":"Semarang","NL_NAME_2":"NA","NAME_3":"Bawen","VARNAME_3":"NA","NL_NAME_3":"NA","TYPE_3":"Kecamatan","ENGTYPE_3":"Sub-district","CC_3":"3322110","HASC_3":"NA"},"geometry":{"type":"MultiPolygon","coordinates":[[[[110.4287,-7.2617],[110.4267,-7.2543],[110.4217,-7.2495],[110.4138,-7.2466],[110.4093,-7.2437],[110.4084,-7.2415],[110.4075,-7.2461],[110.4034,-7.2427],[110.4045,-7.2391],[110.4027,-7.2358],[110.4101,-7.2241],[110.4003,-7.2208],[110.3996,-7.211],[110.4023,-7.2088],[110.4063,-7.209],[110.4093,-7.2073],[110.4101,-7.2049],[110.4136,-7.2064],[110.4181,-7.2028],[110.4193,-7.1999],[110.4223,-7.1996],[110.4238,-7.2097],[110.4227,-7.2112],[110.4241,-7.2108],[110.4245,-7.2137],[110.4235,-7.2148],[110.4289,-7.2166],[110.4325,-7.2198],[110.4364,-7.2109],[110.4389,-7.2106],[110.439,-7.2074],[110.4411,-7.2057],[110.4468,-7.206],[110.4553,-7.1999],[110.4599,-7.2085],[110.4722,-7.2126],[110.4751,-7.2156],[110.4788,-7.2158],[110.4792,-7.2139],[110.4806,-7.216],[110.4811,-7.2141],[110.4834,-7.2153],[110.4857,-7.2144],[110.4867,-7.2165],[110.4884,-7.2145],[110.4919,-7.2144],[110.4969,-7.2175],[110.5004,-7.2177],[110.4998,-7.2223],[110.4972,-7.2232],[110.4995,-7.2272],[110.4977,-7.2296],[110.4988,-7.2326],[110.4957,-7.2344],[110.4945,-7.2394],[110.4902,-7.2395],[110.488,-7.2426],[110.4824,-7.244],[110.4779,-7.242],[110.4749,-7.2429],[110.4733,-7.2471],[110.4697,-7.2486],[110.4667,-7.2525],[110.4594,-7.2548],[110.4475,-7.268],[110.4428,-7.2699],[110.4365,-7.27],[110.4311,-7.2676],[110.4283,-7.2648],[110.4287,-7.2617]]]]}},{"type":"Feature","properties":{"GID_3":"IDN.10.28.6_1","GID_0":"IDN","COUNTRY":"Indonesia","GID_1":"IDN.10_1","NAME_1":"JawaTengah","NL_NAME_1":"NA","GID_2":"IDN.10.28_1","NAME_2":"Semarang","NL_NAME_2":"NA","NAME_3":"Bergas","VARNAME_3":"NA","NL_NAME_3":"NA","TYPE_3":"Kecamatan","ENGTYPE_3":"Sub-district","CC_3":"3322140","HASC_3":"NA"},"geometry":{"type":"MultiPolygon","coordinates":[[[[110.4313,-7.2196],[110.4289,-7.2166],[110.4235,-7.2148],[110.4245,-7.2137],[110.4241,-7.2108],[110.4227,-7.2112],[110.4238,-7.2097],[110.4223,-7.1996],[110.4193,-7.1999],[110.4145,-7.2059],[110.4101,-7.2049],[110.4093,-7.2073],[110.4052,-7.2093],[110.4078,-7.2061],[110.4003,-7.2024],[110.3985,-7.1981],[110.3731,-7.1941],[110.3625,-7.1868],[110.3535,-7.1864],[110.3486,-7.1834],[110.3405,-7.2002],[110.3426,-7.1879],[110.3382,-7.1843],[110.3312,-7.1843],[110.333,-7.1829],[110.3217,-7.1816],[110.3241,-7.1796],[110.318,-7.1796],[110.3241,-7.1782],[110.3246,-7.1737],[110.3299,-7.1704],[110.3315,-7.1727],[110.3388,-7.1733],[110.344,-7.1658],[110.3414,-7.1605],[110.3315,-7.1577],[110.3282,-7.1523],[110.334,-7.1537],[110.3388,-7.1495],[110.3394,-7.1452],[110.3421,-7.1489],[110.3435,-7.1483],[110.3438,-7.1452],[110.3458,-7.1452],[110.3471,-7.1483],[110.3485,-7.1479],[110.3483,-7.1535],[110.3512,-7.1551],[110.3503,-7.1578],[110.3528,-7.1582],[110.3694,-7.148],[110.3718,-7.1482],[110.3714,-7.1523],[110.3779,-7.1499],[110.3773,-7.1522],[110.3792,-7.1514],[110.3806,-7.1546],[110.3831,-7.1546],[110.3839,-7.1573],[110.3866,-7.1565],[110.3906,-7.1634],[110.3985,-7.1632],[110.3984,-7.1668],[110.3952,-7.1669],[110.4005,-7.1684],[110.4041,-7.1662],[110.4056,-7.1729],[110.4129,-7.1691],[110.4157,-7.1713],[110.4182,-7.1709],[110.4198,-7.1686],[110.4209,-7.1708],[110.4265,-7.167],[110.4382,-7.166],[110.4428,-7.1623],[110.4444,-7.1628],[110.4438,-7.1613],[110.4447,-7.162],[110.4461,-7.1593],[110.4535,-7.1633],[110.4556,-7.1633],[110.4559,-7.1611],[110.4583,-7.1624],[110.4603,-7.1612],[110.4618,-7.1579],[110.4601,-7.1575],[110.4621,-7.1555],[110.457,-7.1551],[110.4536,-7.148],[110.4584,-7.1464],[110.4613,-7.1421],[110.459,-7.1376],[110.4619,-7.135],[110.461,-7.1332],[110.4626,-7.1284],[110.4688,-7.1288],[110.4795,-7.1323],[110.4824,-7.1355],[110.4787,-7.1404],[110.48,-7.1446],[110.4832,-7.1464],[110.4832,-7.1538],[110.4848,-7.1558],[110.483,-7.1572],[110.4844,-7.161],[110.4811,-7.1662],[110.4817,-7.1678],[110.4804,-7.1696],[110.4749,-7.1658],[110.468,-7.1639],[110.4648,-7.1655],[110.4618,-7.1706],[110.459,-7.1708],[110.4565,-7.1733],[110.4568,-7.1758],[110.4533,-7.1773],[110.4534,-7.1786],[110.4508,-7.1778],[110.4475,-7.1816],[110.4408,-7.1827],[110.4413,-7.1859],[110.4432,-7.1866],[110.4419,-7.1896],[110.4428,-7.1947],[110.4375,-7.195],[110.4391,-7.1969],[110.4367,-7.1977],[110.4361,-7.2003],[110.4411,-7.2057],[110.439,-7.2074],[110.4389,-7.2106],[110.4364,-7.2109],[110.4325,-7.2198],[110.4313,-7.2196]]]]}},{"type":"Feature","properties":{"GID_3":"IDN.10.28.7_1","GID_0":"IDN","COUNTRY":"Indonesia","GID_1":"IDN.10_1","NAME_1":"JawaTengah","NL_NAME_1":"NA","GID_2":"IDN.10.28_1","NAME_2":"Semarang","NL_NAME_2":"NA","NAME_3":"Bringin","VARNAME_3":"NA","NL_NAME_3":"NA","TYPE_3":"Kecamatan","ENGTYPE_3":"Sub-district","CC_3":"3322120","HASC_3":"NA"},"geometry":{"type":"MultiPolygon","coordinates":[[[[110.5676,-7.2324],[110.5674,-7.238],[110.5689,-7.2398],[110.5654,-7.2434],[110.5636,-7.25],[110.571,-7.2498],[110.5702,-7.2529],[110.5777,-7.26],[110.5773,-7.2655],[110.5799,-7.2652],[110.5805,-7.2671],[110.5781,-7.2702],[110.577,-7.276],[110.5753,-7.2767],[110.5733,-7.2743],[110.5716,-7.2758],[110.5667,-7.2737],[110.5662,-7.275],[110.5608,-7.2757],[110.5588,-7.2766],[110.5555,-7.2836],[110.5535,-7.2819],[110.5526,-7.2764],[110.5489,-7.277],[110.5482,-7.2747],[110.5456,-7.2749],[110.5437,-7.2695],[110.5401,-7.271],[110.5364,-7.2708],[110.5371,-7.2684],[110.5403,-7.2673],[110.5392,-7.2622],[110.5422,-7.2569],[110.5342,-7.2587],[110.5309,-7.265],[110.5286,-7.2643],[110.5287,-7.2628],[110.5217,-7.2661],[110.5177,-7.2643],[110.5165,-7.2702],[110.5152,-7.2702],[110.5169,-7.2607],[110.5074,-7.2568],[110.5052,-7.2495],[110.5091,-7.2453],[110.5079,-7.2436],[110.514,-7.2329],[110.5097,-7.2158],[110.5104,-7.2118],[110.5058,-7.2088],[110.5071,-7.2053],[110.5179,-7.2068],[110.5231,-7.2061],[110.5235,-7.2048],[110.5274,-7.2057],[110.5282,-7.2015],[110.5261,-7.1981],[110.5239,-7.1976],[110.524,-7.1946],[110.5267,-7.1953],[110.5368,-7.1905],[110.5354,-7.1879],[110.5384,-7.1873],[110.5369,-7.1825],[110.5407,-7.1834],[110.5431,-7.1814],[110.5452,-7.1829],[110.5439,-7.1854],[110.546,-7.1851],[110.544,-7.1886],[110.5463,-7.1951],[110.5509,-7.1941],[110.5515,-7.1927],[110.5539,-7.1938],[110.5543,-7.1902],[110.5566,-7.1905],[110.5542,-7.1891],[110.5561,-7.1872],[110.5597,-7.1927],[110.5617,-7.1918],[110.5623,-7.188],[110.5639,-7.1913],[110.5661,-7.1902],[110.5687,-7.1944],[110.5701,-7.1922],[110.5691,-7.1893],[110.5704,-7.189],[110.5766,-7.1952],[110.5763,-7.1989],[110.5789,-7.1969],[110.5799,-7.2002],[110.583,-7.2027],[110.5853,-7.2007],[110.589,-7.2008],[110.5897,-7.1975],[110.5934,-7.1994],[110.6013,-7.1998],[110.6003,-7.1964],[110.6017,-7.1948],[110.6064,-7.1949],[110.6127,-7.1988],[110.6135,-7.2025],[110.6092,-7.2093],[110.6033,-7.2083],[110.6013,-7.2107],[110.6013,-7.2136],[110.5987,-7.2147],[110.5982,-7.2184],[110.5935,-7.2241],[110.5892,-7.2253],[110.5897,-7.228],[110.5844,-7.2292],[110.5844,-7.2311],[110.5812,-7.2324],[110.5769,-7.2296],[110.5749,-7.232],[110.5727,-7.2311],[110.5676,-7.2324]],[[110.5198,-7.2607],[110.5191,-7.2605],[110.5191,-7.2619],[110.5197,-7.2612],[110.5198,-7.2607]],[[110.5926,-7.2029],[110.5927,-7.2017],[110.5918,-7.2004],[110.5922,-7.2031],[110.5926,-7.2029]]]]}},{"type":"Feature","properties":{"GID_3":"IDN.10.28.8_1","GID_0":"IDN","COUNTRY":"Indonesia","GID_1":"IDN.10_1","NAME_1":"JawaTengah","NL_NAME_1":"NA","GID_2":"IDN.10.28_1","NAME_2":"Semarang","NL_NAME_2":"NA","NAME_3":"Getasan","VARNAME_3":"NA","NL_NAME_3":"NA","TYPE_3":"Kecamatan","ENGTYPE_3":"Sub-district","CC_3":"3322010","HASC_3":"NA"},"geometry":{"type":"MultiPolygon","coordinates":[[[[110.462,-7.4107],[110.4584,-7.4147],[110.4565,-7.4226],[110.4474,-7.4334],[110.4473,-7.437],[110.4429,-7.4446],[110.4427,-7.4496],[110.4382,-7.4532],[110.4249,-7.4349],[110.4242,-7.4298],[110.4194,-7.4221],[110.4143,-7.4166],[110.4132,-7.4079],[110.4053,-7.3896],[110.4052,-7.3787],[110.4066,-7.377],[110.4042,-7.375],[110.4036,-7.3655],[110.3993,-7.3602],[110.4164,-7.3551],[110.4218,-7.3501],[110.4257,-7.3498],[110.4272,-7.3512],[110.4293,-7.3462],[110.4303,-7.3505],[110.4334,-7.3539],[110.4332,-7.3582],[110.4348,-7.3606],[110.4405,-7.3591],[110.4452,-7.3518],[110.4487,-7.3515],[110.4508,-7.3492],[110.45,-7.3398],[110.4563,-7.34],[110.458,-7.3424],[110.4607,-7.3423],[110.4607,-7.3382],[110.4683,-7.339],[110.4703,-7.3334],[110.4717,-7.3332],[110.4696,-7.3386],[110.4714,-7.3455],[110.4761,-7.3496],[110.4744,-7.3561],[110.4784,-7.3706],[110.4772,-7.3745],[110.4814,-7.3796],[110.4882,-7.3768],[110.4912,-7.3816],[110.4904,-7.3846],[110.4921,-7.3888],[110.4841,-7.395],[110.483,-7.4001],[110.4808,-7.4023],[110.4816,-7.4033],[110.4655,-7.4081],[110.462,-7.4107]]]]}},{"type":"Feature","properties":{"GID_3":"IDN.10.28.9_1","GID_0":"IDN","COUNTRY":"Indonesia","GID_1":"IDN.10_1","NAME_1":"JawaTengah","NL_NAME_1":"NA","GID_2":"IDN.10.28_1","NAME_2":"Semarang","NL_NAME_2":"NA","NAME_3":"Jambu","VARNAME_3":"NA","NL_NAME_3":"NA","TYPE_3":"Kecamatan","ENGTYPE_3":"Sub-district","CC_3":"3322080","HASC_3":"NA"},"geometry":{"type":"MultiPolygon","coordinates":[[[[110.3432,-7.3259],[110.3322,-7.3205],[110.328,-7.3203],[110.3281,-7.314],[110.33,-7.3119],[110.3276,-7.3115],[110.3255,-7.309],[110.3181,-7.3123],[110.314,-7.3098],[110.3138,-7.3083],[110.3175,-7.3048],[110.3277,-7.3025],[110.3271,-7.296],[110.3214,-7.2871],[110.3104,-7.2808],[110.3117,-7.2799],[110.3092,-7.2756],[110.3054,-7.2753],[110.3017,-7.2724],[110.3105,-7.2737],[110.3151,-7.2642],[110.3139,-7.2593],[110.311,-7.2587],[110.3222,-7.2596],[110.3231,-7.2505],[110.3294,-7.2506],[110.335,-7.2525],[110.3374,-7.255],[110.3426,-7.2559],[110.3506,-7.2656],[110.3611,-7.2569],[110.3622,-7.2604],[110.3664,-7.2643],[110.3757,-7.2633],[110.3809,-7.2658],[110.3836,-7.2684],[110.3864,-7.2768],[110.3863,-7.2813],[110.3837,-7.2803],[110.3851,-7.2822],[110.3843,-7.2843],[110.3821,-7.285],[110.3818,-7.2872],[110.3799,-7.2868],[110.3798,-7.2891],[110.3827,-7.291],[110.3848,-7.2904],[110.3846,-7.2919],[110.3812,-7.2918],[110.3809,-7.2973],[110.3837,-7.3027],[110.3879,-7.3011],[110.3874,-7.3063],[110.3896,-7.311],[110.3786,-7.3229],[110.3775,-7.3342],[110.3716,-7.3334],[110.3682,-7.3308],[110.3626,-7.3311],[110.3539,-7.3259],[110.3432,-7.3259]]]]}},{"type":"Feature","properties":{"GID_3":"IDN.10.28.10_1","GID_0":"IDN","COUNTRY":"Indonesia","GID_1":"IDN.10_1","NAME_1":"JawaTengah","NL_NAME_1":"NA","GID_2":"IDN.10.28_1","NAME_2":"Semarang","NL_NAME_2":"NA","NAME_3":"Kaliwungu","VARNAME_3":"NA","NL_NAME_3":"NA","TYPE_3":"Kecamatan","ENGTYPE_3":"Sub-district","CC_3":"3322031","HASC_3":"NA"},"geometry":{"type":"MultiPolygon","coordinates":[[[[110.6334,-7.4902],[110.6279,-7.4919],[110.6218,-7.4915],[110.6184,-7.4882],[110.615,-7.4896],[110.606,-7.4878],[110.6021,-7.4904],[110.6018,-7.483],[110.5961,-7.4829],[110.5961,-7.4806],[110.5989,-7.4802],[110.594,-7.4762],[110.5907,-7.4759],[110.59,-7.4726],[110.5864,-7.472],[110.5844,-7.4683],[110.5788,-7.4655],[110.5778,-7.4619],[110.5891,-7.4648],[110.5892,-7.461],[110.5864,-7.4601],[110.5875,-7.4564],[110.5857,-7.4552],[110.586,-7.4524],[110.5838,-7.452],[110.5849,-7.4506],[110.5785,-7.4495],[110.5817,-7.4468],[110.5854,-7.4472],[110.5844,-7.4488],[110.5938,-7.4506],[110.5975,-7.4541],[110.5998,-7.4478],[110.5914,-7.4447],[110.5938,-7.4419],[110.6037,-7.4412],[110.6061,-7.4468],[110.6089,-7.4476],[110.6112,-7.4459],[110.614,-7.4494],[110.6219,-7.4499],[110.6213,-7.4543],[110.6234,-7.4553],[110.631,-7.4514],[110.6377,-7.4521],[110.6444,-7.4464],[110.6485,-7.4477],[110.6452,-7.4518],[110.6322,-7.4577],[110.6292,-7.4644],[110.6339,-7.4672],[110.6354,-7.4707],[110.6392,-7.4724],[110.6407,-7.47],[110.6501,-7.4706],[110.6615,-7.4747],[110.6554,-7.4805],[110.6542,-7.4845],[110.6547,-7.4868],[110.6582,-7.4878],[110.6604,-7.4964],[110.6573,-7.4965],[110.6474,-7.4912],[110.6392,-7.4953],[110.6334,-7.4902]]]]}},{"type":"Feature","properties":{"GID_3":"IDN.10.28.11_1","GID_0":"IDN","COUNTRY":"Indonesia","GID_1":"IDN.10_1","NAME_1":"JawaTengah","NL_NAME_1":"NA","GID_2":"IDN.10.28_1","NAME_2":"Semarang","NL_NAME_2":"NA","NAME_3":"Pabelan","VARNAME_3":"NA","NL_NAME_3":"NA","TYPE_3":"Kecamatan","ENGTYPE_3":"Sub-district","CC_3":"3322050","HASC_3":"NA"},"geometry":{"type":"MultiPolygon","coordinates":[[[[110.5284,-7.3437],[110.5309,-7.3405],[110.5302,-7.3373],[110.528,-7.3376],[110.5235,-7.3302],[110.5245,-7.3262],[110.5167,-7.3202],[110.5169,-7.3091],[110.5181,-7.3041],[110.5208,-7.302],[110.5206,-7.2986],[110.5185,-7.2966],[110.5204,-7.2924],[110.5193,-7.2903],[110.5179,-7.2893],[110.518,-7.2925],[110.515,-7.2951],[110.5132,-7.2942],[110.5106,-7.3019],[110.5088,-7.3006],[110.5003,-7.3002],[110.4947,-7.2947],[110.4935,-7.291],[110.4962,-7.2833],[110.5033,-7.28],[110.5051,-7.2809],[110.509,-7.2789],[110.5126,-7.2834],[110.515,-7.2808],[110.5163,-7.2841],[110.5188,-7.2845],[110.5163,-7.2677],[110.5177,-7.2643],[110.5217,-7.2661],[110.5287,-7.2628],[110.5286,-7.2643],[110.5309,-7.265],[110.5342,-7.2587],[110.5422,-7.2569],[110.5392,-7.2622],[110.5403,-7.2673],[110.5371,-7.2684],[110.5364,-7.2708],[110.5437,-7.2695],[110.5456,-7.2749],[110.5482,-7.2747],[110.5489,-7.277],[110.5526,-7.2764],[110.5535,-7.2819],[110.5555,-7.2836],[110.5588,-7.2766],[110.5637,-7.2749],[110.5617,-7.2792],[110.564,-7.2819],[110.5653,-7.2931],[110.5638,-7.2968],[110.5658,-7.2992],[110.5785,-7.2944],[110.582,-7.2946],[110.5843,-7.2971],[110.5875,-7.2962],[110.5834,-7.3019],[110.5857,-7.3073],[110.583,-7.3106],[110.5831,-7.3169],[110.5837,-7.3206],[110.5856,-7.3217],[110.5804,-7.3236],[110.5798,-7.3297],[110.5742,-7.3272],[110.5659,-7.3296],[110.5644,-7.3412],[110.5622,-7.3442],[110.557,-7.3461],[110.555,-7.3418],[110.5511,-7.3422],[110.5454,-7.346],[110.5394,-7.3455],[110.5388,-7.3422],[110.5367,-7.346],[110.5284,-7.3437]]],[[[110.5188,-7.2613],[110.5191,-7.2605],[110.5198,-7.2607],[110.5191,-7.2619],[110.5188,-7.2613]]]]}},{"type":"Feature","properties":{"GID_3":"IDN.10.28.12_1","GID_0":"IDN","COUNTRY":"Indonesia","GID_1":"IDN.10_1","NAME_1":"JawaTengah","NL_NAME_1":"NA","GID_2":"IDN.10.28_1","NAME_2":"Semarang","NL_NAME_2":"NA","NAME_3":"Pringapus","VARNAME_3":"NA","NL_NAME_3":"NA","TYPE_3":"Kecamatan","ENGTYPE_3":"Sub-district","CC_3":"3322130","HASC_3":"NA"},"geometry":{"type":"MultiPolygon","coordinates":[[[[110.4918,-7.2145],[110.4884,-7.2145],[110.4867,-7.2165],[110.4857,-7.2144],[110.4834,-7.2153],[110.4811,-7.2141],[110.4806,-7.216],[110.4792,-7.2139],[110.4788,-7.2158],[110.476,-7.2159],[110.4722,-7.2126],[110.4599,-7.2085],[110.4553,-7.1999],[110.4468,-7.206],[110.4407,-7.2057],[110.4392,-7.2023],[110.4361,-7.2003],[110.4367,-7.1977],[110.4391,-7.1969],[110.4375,-7.195],[110.4428,-7.1947],[110.4419,-7.1896],[110.4432,-7.1866],[110.4413,-7.1859],[110.4408,-7.1827],[110.4475,-7.1816],[110.4508,-7.1778],[110.4534,-7.1786],[110.4533,-7.1773],[110.4568,-7.1758],[110.4565,-7.1733],[110.459,-7.1708],[110.4618,-7.1706],[110.4648,-7.1655],[110.469,-7.1639],[110.481,-7.1688],[110.4844,-7.161],[110.483,-7.1572],[110.4848,-7.1558],[110.4832,-7.1538],[110.4832,-7.1464],[110.48,-7.1446],[110.4786,-7.1397],[110.4824,-7.1343],[110.4866,-7.1355],[110.4911,-7.1323],[110.4927,-7.1337],[110.496,-7.1322],[110.494,-7.1305],[110.4948,-7.1256],[110.4996,-7.1161],[110.5008,-7.1198],[110.5054,-7.1231],[110.5102,-7.1219],[110.5134,-7.1235],[110.5136,-7.1284],[110.5207,-7.1332],[110.5272,-7.1292],[110.5316,-7.1319],[110.5349,-7.1307],[110.5353,-7.1283],[110.5364,-7.13],[110.5384,-7.1277],[110.5424,-7.1284],[110.5474,-7.1322],[110.5463,-7.135],[110.5489,-7.1381],[110.5514,-7.1373],[110.5611,-7.1417],[110.5574,-7.1467],[110.5582,-7.1517],[110.5539,-7.1601],[110.5537,-7.1684],[110.5516,-7.1671],[110.5473,-7.1683],[110.5453,-7.1736],[110.542,-7.1772],[110.5417,-7.1827],[110.5368,-7.1827],[110.5384,-7.1873],[110.5354,-7.1879],[110.5368,-7.1905],[110.5267,-7.1953],[110.524,-7.1946],[110.5239,-7.1976],[110.5261,-7.1981],[110.5282,-7.2015],[110.5275,-7.2055],[110.5235,-7.2048],[110.5231,-7.2061],[110.5179,-7.2068],[110.5077,-7.2048],[110.5058,-7.2088],[110.5066,-7.2114],[110.5014,-7.2173],[110.4969,-7.2175],[110.4918,-7.2145]]],[[[110.4999,-7.1119],[110.4998,-7.1149],[110.4995,-7.1159],[110.4991,-7.1145],[110.4999,-7.1119]]],[[[110.5029,-7.1116],[110.5024,-7.1126],[110.5016,-7.1133],[110.5025,-7.111],[110.5029,-7.1116]]],[[[110.4995,-7.1099],[110.5,-7.11],[110.5025,-7.111],[110.4991,-7.1101],[110.4995,-7.1099]]]]}},{"type":"Feature","properties":{"GID_3":"IDN.10.28.13_1","GID_0":"IDN","COUNTRY":"Indonesia","GID_1":"IDN.10_1","NAME_1":"JawaTengah","NL_NAME_1":"NA","GID_2":"IDN.10.28_1","NAME_2":"Semarang","NL_NAME_2":"NA","NAME_3":"Sumowono","VARNAME_3":"NA","NL_NAME_3":"NA","TYPE_3":"Kecamatan","ENGTYPE_3":"Sub-district","CC_3":"3322090","HASC_3":"NA"},"geometry":{"type":"MultiPolygon","coordinates":[[[[110.3139,-7.26],[110.3151,-7.2642],[110.3105,-7.2737],[110.303,-7.2729],[110.2923,-7.2653],[110.2831,-7.2537],[110.2778,-7.2518],[110.2711,-7.252],[110.2705,-7.246],[110.2737,-7.2358],[110.2725,-7.2338],[110.2716,-7.2348],[110.2667,-7.2323],[110.2671,-7.2303],[110.264,-7.2245],[110.2666,-7.2177],[110.2577,-7.2172],[110.2584,-7.2141],[110.2546,-7.2117],[110.2517,-7.1974],[110.26,-7.1993],[110.2697,-7.1965],[110.2725,-7.1999],[110.2725,-7.1989],[110.276,-7.1997],[110.2755,-7.1959],[110.2806,-7.1958],[110.2814,-7.1937],[110.2856,-7.1935],[110.2843,-7.1875],[110.2916,-7.1934],[110.2969,-7.1952],[110.3201,-7.1949],[110.3222,-7.1968],[110.3325,-7.1933],[110.3407,-7.194],[110.3385,-7.2091],[110.3348,-7.2137],[110.3335,-7.2222],[110.33,-7.2257],[110.3276,-7.2312],[110.3299,-7.2334],[110.3301,-7.236],[110.3289,-7.2408],[110.3254,-7.242],[110.3242,-7.2442],[110.3222,-7.2596],[110.311,-7.2587],[110.3139,-7.26]]]]}},{"type":"Feature","properties":{"GID_3":"IDN.10.28.14_1","GID_0":"IDN","COUNTRY":"Indonesia","GID_1":"IDN.10_1","NAME_1":"JawaTengah","NL_NAME_1":"NA","GID_2":"IDN.10.28_1","NAME_2":"Semarang","NL_NAME_2":"NA","NAME_3":"Suruh","VARNAME_3":"NA","NL_NAME_3":"NA","TYPE_3":"Kecamatan","ENGTYPE_3":"Sub-district","CC_3":"3322040","HASC_3":"NA"},"geometry":{"type":"MultiPolygon","coordinates":[[[[110.6085,-7.3706],[110.6059,-7.3705],[110.6043,-7.3723],[110.6068,-7.372],[110.6043,-7.3789],[110.6055,-7.3789],[110.6034,-7.3819],[110.6001,-7.3824],[110.5977,-7.3864],[110.5985,-7.3877],[110.5887,-7.3902],[110.5804,-7.3947],[110.5778,-7.3929],[110.5711,-7.3943],[110.5604,-7.3855],[110.5566,-7.3893],[110.5504,-7.3897],[110.549,-7.3917],[110.5447,-7.392],[110.5424,-7.3899],[110.5394,-7.3913],[110.5342,-7.3906],[110.5353,-7.3838],[110.5392,-7.3773],[110.5454,-7.3729],[110.5493,-7.3745],[110.5509,-7.3692],[110.5434,-7.3643],[110.548,-7.3587],[110.5512,-7.3578],[110.5574,-7.3456],[110.5637,-7.3431],[110.5655,-7.3301],[110.5742,-7.3272],[110.5798,-7.3297],[110.5804,-7.3236],[110.5856,-7.3217],[110.5837,-7.3206],[110.5831,-7.3169],[110.583,-7.3106],[110.5857,-7.3073],[110.5834,-7.3019],[110.5875,-7.2962],[110.5905,-7.2978],[110.5931,-7.2957],[110.5901,-7.2863],[110.5914,-7.2827],[110.6015,-7.2824],[110.6016,-7.279],[110.6048,-7.2758],[110.6051,-7.2734],[110.607,-7.2728],[110.613,-7.2803],[110.6127,-7.2831],[110.6217,-7.2893],[110.6046,-7.2901],[110.6009,-7.2919],[110.6036,-7.3],[110.5993,-7.3071],[110.5993,-7.3155],[110.6031,-7.3226],[110.6101,-7.3246],[110.6079,-7.331],[110.6139,-7.3339],[110.6172,-7.3336],[110.6233,-7.3318],[110.6303,-7.3273],[110.6358,-7.3282],[110.6408,-7.3258],[110.6426,-7.326],[110.6438,-7.3314],[110.6466,-7.3326],[110.6429,-7.3343],[110.64,-7.3389],[110.6402,-7.3507],[110.6382,-7.3503],[110.6361,-7.3524],[110.636,-7.3615],[110.6291,-7.3687],[110.6214,-7.3715],[110.618,-7.3757],[110.6161,-7.3743],[110.6131,-7.3762],[110.6117,-7.3742],[110.6101,-7.3751],[110.6085,-7.3706]]],[[[110.6311,-7.372],[110.6305,-7.3714],[110.6304,-7.3711],[110.6316,-7.3723],[110.6311,-7.372]]]]}},{"type":"Feature","properties":{"GID_3":"IDN.10.28.15_1","GID_0":"IDN","COUNTRY":"Indonesia","GID_1":"IDN.10_1","NAME_1":"JawaTengah","NL_NAME_1":"NA","GID_2":"IDN.10.28_1","NAME_2":"Semarang","NL_NAME_2":"NA","NAME_3":"Susukan","VARNAME_3":"NA","NL_NAME_3":"NA","TYPE_3":"Kecamatan","ENGTYPE_3":"Sub-district","CC_3":"3322030","HASC_3":"NA"},"geometry":{"type":"MultiPolygon","coordinates":[[[[110.5819,-7.4454],[110.5831,-7.445],[110.5828,-7.4468],[110.586,-7.4462],[110.5807,-7.4478],[110.5804,-7.4451],[110.5819,-7.4454]]],[[[110.5714,-7.4451],[110.5697,-7.4438],[110.565,-7.4426],[110.5723,-7.4423],[110.5714,-7.4451]]],[[[110.5729,-7.4306],[110.5729,-7.4352],[110.5742,-7.4362],[110.5732,-7.4382],[110.5714,-7.4404],[110.5675,-7.4403],[110.5684,-7.4301],[110.573,-7.4283],[110.5741,-7.4259],[110.5758,-7.4317],[110.5729,-7.4306]]],[[[110.5709,-7.3938],[110.5791,-7.393],[110.5804,-7.3947],[110.5887,-7.3902],[110.5982,-7.3879],[110.6001,-7.3824],[110.6034,-7.3819],[110.6055,-7.3789],[110.6043,-7.3789],[110.6068,-7.372],[110.6043,-7.3723],[110.6059,-7.3705],[110.609,-7.3705],[110.6101,-7.3751],[110.6117,-7.3742],[110.6131,-7.3762],[110.6161,-7.3743],[110.618,-7.3757],[110.6214,-7.3715],[110.6301,-7.3674],[110.629,-7.3696],[110.632,-7.3728],[110.6248,-7.3823],[110.6296,-7.3847],[110.6288,-7.3868],[110.6347,-7.3896],[110.6346,-7.4005],[110.6381,-7.403],[110.6382,-7.4063],[110.6357,-7.4064],[110.6364,-7.4163],[110.6318,-7.4185],[110.6348,-7.4225],[110.6337,-7.4259],[110.6357,-7.43],[110.6323,-7.4336],[110.6314,-7.4391],[110.6259,-7.4414],[110.6231,-7.4458],[110.6222,-7.4443],[110.6189,-7.4457],[110.6219,-7.4499],[110.614,-7.4494],[110.6112,-7.4459],[110.6089,-7.4476],[110.6061,-7.4468],[110.6037,-7.4412],[110.5938,-7.4419],[110.5891,-7.4459],[110.5894,-7.4424],[110.586,-7.4419],[110.5856,-7.437],[110.5839,-7.4357],[110.5812,-7.427],[110.5851,-7.4247],[110.5852,-7.418],[110.5872,-7.4129],[110.5831,-7.4119],[110.5687,-7.417],[110.5578,-7.4163],[110.5588,-7.4079],[110.5466,-7.4049],[110.5444,-7.3999],[110.5436,-7.3912],[110.5458,-7.3922],[110.549,-7.3917],[110.5504,-7.3897],[110.556,-7.3896],[110.5604,-7.3855],[110.5709,-7.3938]]]]}},{"type":"Feature","properties":{"GID_3":"IDN.10.28.16_1","GID_0":"IDN","COUNTRY":"Indonesia","GID_1":"IDN.10_1","NAME_1":"JawaTengah","NL_NAME_1":"NA","GID_2":"IDN.10.28_1","NAME_2":"Semarang","NL_NAME_2":"NA","NAME_3":"Tengaran","VARNAME_3":"NA","NL_NAME_3":"NA","TYPE_3":"Kecamatan","ENGTYPE_3":"Sub-district","CC_3":"3322020","HASC_3":"NA"},"geometry":{"type":"MultiPolygon","coordinates":[[[[110.5589,-7.4337],[110.5582,-7.4417],[110.5605,-7.4512],[110.5554,-7.4517],[110.5524,-7.4501],[110.551,-7.4446],[110.554,-7.4446],[110.5543,-7.4422],[110.5475,-7.4389],[110.5478,-7.4347],[110.546,-7.435],[110.5445,-7.4331],[110.5377,-7.4348],[110.5308,-7.4333],[110.5175,-7.4387],[110.5124,-7.4215],[110.5173,-7.4164],[110.5113,-7.4149],[110.5081,-7.412],[110.5092,-7.4098],[110.5113,-7.4095],[110.5097,-7.4074],[110.5063,-7.4083],[110.5042,-7.4115],[110.4975,-7.4107],[110.4836,-7.4074],[110.4835,-7.4024],[110.4808,-7.4025],[110.483,-7.4001],[110.4841,-7.395],[110.4915,-7.3887],[110.5152,-7.3853],[110.5152,-7.3836],[110.5123,-7.3837],[110.5121,-7.3793],[110.5161,-7.3791],[110.5156,-7.3625],[110.5221,-7.3635],[110.5244,-7.3624],[110.5273,-7.3641],[110.5282,-7.3617],[110.5334,-7.3603],[110.5343,-7.3541],[110.5317,-7.3544],[110.5339,-7.3519],[110.5305,-7.3483],[110.5294,-7.3438],[110.5367,-7.346],[110.5388,-7.3422],[110.5394,-7.3455],[110.5454,-7.346],[110.5511,-7.3422],[110.555,-7.3418],[110.557,-7.3459],[110.5512,-7.3578],[110.548,-7.3587],[110.5434,-7.3643],[110.5509,-7.3692],[110.5493,-7.3745],[110.5454,-7.3729],[110.5392,-7.3773],[110.5352,-7.3843],[110.5343,-7.391],[110.5424,-7.3899],[110.5435,-7.3909],[110.5444,-7.3999],[110.5466,-7.4049],[110.5588,-7.4079],[110.5578,-7.4163],[110.5687,-7.417],[110.5831,-7.4119],[110.5873,-7.4132],[110.5852,-7.418],[110.5855,-7.4237],[110.5831,-7.4264],[110.5812,-7.427],[110.5769,-7.423],[110.5732,-7.4225],[110.573,-7.4283],[110.5692,-7.4298],[110.5698,-7.4252],[110.5672,-7.4249],[110.5662,-7.4267],[110.5646,-7.4259],[110.5623,-7.4308],[110.5588,-7.4314],[110.5589,-7.4337]]]]}},{"type":"Feature","properties":{"GID_3":"IDN.10.28.17_1","GID_0":"IDN","COUNTRY":"Indonesia","GID_1":"IDN.10_1","NAME_1":"JawaTengah","NL_NAME_1":"NA","GID_2":"IDN.10.28_1","NAME_2":"Semarang","NL_NAME_2":"NA","NAME_3":"Tuntang","VARNAME_3":"NA","NL_NAME_3":"NA","TYPE_3":"Kecamatan","ENGTYPE_3":"Sub-district","CC_3":"3322060","HASC_3":"NA"},"geometry":{"type":"MultiPolygon","coordinates":[[[[110.4496,-7.3392],[110.4464,-7.3314],[110.4444,-7.3313],[110.4458,-7.3205],[110.4443,-7.32],[110.4452,-7.316],[110.4425,-7.3146],[110.4439,-7.3047],[110.4461,-7.306],[110.4493,-7.3046],[110.4497,-7.2942],[110.4484,-7.2917],[110.4514,-7.2874],[110.4494,-7.2829],[110.4464,-7.2817],[110.4469,-7.2804],[110.4446,-7.2785],[110.4418,-7.2699],[110.4475,-7.268],[110.4594,-7.2548],[110.4671,-7.2522],[110.4697,-7.2486],[110.4733,-7.2471],[110.4749,-7.2429],[110.4779,-7.242],[110.4824,-7.244],[110.488,-7.2426],[110.4902,-7.2395],[110.4949,-7.2392],[110.4957,-7.2344],[110.4988,-7.2326],[110.4977,-7.2292],[110.4995,-7.2281],[110.4972,-7.2229],[110.4998,-7.2223],[110.5002,-7.218],[110.5065,-7.2104],[110.5091,-7.2111],[110.5104,-7.2118],[110.5097,-7.2158],[110.5117,-7.2278],[110.514,-7.2329],[110.5079,-7.2436],[110.5091,-7.2453],[110.5052,-7.2495],[110.5074,-7.2568],[110.5169,-7.2607],[110.5152,-7.2702],[110.5169,-7.2684],[110.5188,-7.2845],[110.5163,-7.2841],[110.515,-7.2808],[110.5126,-7.2834],[110.509,-7.2789],[110.5051,-7.2809],[110.5033,-7.28],[110.4962,-7.2833],[110.4937,-7.2897],[110.4915,-7.2912],[110.4881,-7.2919],[110.4843,-7.286],[110.4688,-7.2958],[110.4717,-7.2973],[110.4696,-7.2992],[110.4704,-7.3026],[110.4759,-7.3091],[110.4752,-7.3106],[110.474,-7.3091],[110.4732,-7.3102],[110.4761,-7.3125],[110.4746,-7.3156],[110.4754,-7.3186],[110.472,-7.3264],[110.4717,-7.3332],[110.4703,-7.3334],[110.4683,-7.339],[110.4607,-7.3382],[110.4607,-7.3423],[110.4496,-7.3392]]]]}},{"type":"Feature","properties":{"GID_3":"IDN.10.28.18_1","GID_0":"IDN","COUNTRY":"Indonesia","GID_1":"IDN.10_1","NAME_1":"JawaTengah","NL_NAME_1":"NA","GID_2":"IDN.10.28_1","NAME_2":"Semarang","NL_NAME_2":"NA","NAME_3":"UngaranBarat","VARNAME_3":"NA","NL_NAME_3":"NA","TYPE_3":"Kecamatan","ENGTYPE_3":"Sub-district","CC_3":"3322151","HASC_3":"NA"},"geometry":{"type":"MultiPolygon","coordinates":[[[[110.4043,-7.1708],[110.4041,-7.1662],[110.4005,-7.1684],[110.3952,-7.1669],[110.3984,-7.1668],[110.3985,-7.1632],[110.3906,-7.1634],[110.3866,-7.1565],[110.3839,-7.1573],[110.3831,-7.1546],[110.3806,-7.1546],[110.3792,-7.1514],[110.3773,-7.1522],[110.3779,-7.1499],[110.3714,-7.1523],[110.3718,-7.1482],[110.3694,-7.148],[110.3528,-7.1582],[110.3503,-7.1578],[110.3512,-7.1551],[110.3483,-7.1535],[110.3526,-7.1443],[110.3529,-7.1362],[110.351,-7.1318],[110.3529,-7.1246],[110.3525,-7.1222],[110.3485,-7.1193],[110.3499,-7.1163],[110.3488,-7.1126],[110.3494,-7.1109],[110.3509,-7.112],[110.354,-7.1106],[110.3535,-7.1069],[110.355,-7.1078],[110.3624,-7.1044],[110.3651,-7.1065],[110.3686,-7.1065],[110.37,-7.1087],[110.3699,-7.1068],[110.3716,-7.1073],[110.3737,-7.1048],[110.373,-7.098],[110.3764,-7.0944],[110.376,-7.0981],[110.3779,-7.0984],[110.3796,-7.1013],[110.3764,-7.1073],[110.3768,-7.1093],[110.3819,-7.1108],[110.3842,-7.1141],[110.3896,-7.1118],[110.3972,-7.1146],[110.4026,-7.1096],[110.4029,-7.1138],[110.4046,-7.1101],[110.4181,-7.1083],[110.418,-7.1103],[110.4158,-7.1099],[110.4149,-7.1124],[110.4151,-7.1181],[110.413,-7.1199],[110.4143,-7.1237],[110.4132,-7.1279],[110.4089,-7.1301],[110.408,-7.1345],[110.4032,-7.1349],[110.4042,-7.139],[110.4053,-7.139],[110.4047,-7.1366],[110.4065,-7.1382],[110.408,-7.1359],[110.4117,-7.1391],[110.4131,-7.1425],[110.4098,-7.1447],[110.4109,-7.147],[110.4098,-7.1487],[110.4076,-7.1487],[110.4085,-7.1563],[110.4066,-7.1567],[110.4071,-7.1593],[110.4076,-7.1604],[110.4106,-7.1596],[110.4123,-7.1621],[110.4179,-7.1614],[110.4198,-7.1686],[110.4182,-7.1709],[110.4149,-7.1711],[110.4129,-7.1691],[110.4056,-7.1729],[110.4043,-7.1708]]]]}},{"type":"Feature","properties":{"GID_3":"IDN.10.28.19_1","GID_0":"IDN","COUNTRY":"Indonesia","GID_1":"IDN.10_1","NAME_1":"JawaTengah","NL_NAME_1":"NA","GID_2":"IDN.10.28_1","NAME_2":"Semarang","NL_NAME_2":"NA","NAME_3":"UngaranTimur","VARNAME_3":"NA","NL_NAME_3":"NA","TYPE_3":"Kecamatan","ENGTYPE_3":"Sub-district","CC_3":"3322152","HASC_3":"NA"},"geometry":{"type":"MultiPolygon","coordinates":[[[[110.4265,-7.167],[110.4209,-7.1708],[110.4179,-7.1614],[110.4123,-7.1621],[110.4106,-7.1596],[110.4076,-7.1604],[110.4065,-7.1574],[110.4085,-7.1563],[110.4076,-7.1487],[110.4098,-7.1487],[110.4109,-7.147],[110.4098,-7.1447],[110.4131,-7.1425],[110.4117,-7.1391],[110.408,-7.1359],[110.4065,-7.1382],[110.4047,-7.1366],[110.4053,-7.139],[110.4042,-7.139],[110.4032,-7.1349],[110.408,-7.1345],[110.4089,-7.1301],[110.4133,-7.1277],[110.4143,-7.1237],[110.413,-7.1199],[110.4151,-7.1181],[110.4149,-7.1124],[110.4158,-7.1099],[110.418,-7.1103],[110.4181,-7.1083],[110.4162,-7.1083],[110.417,-7.1068],[110.4216,-7.1042],[110.4227,-7.0966],[110.4297,-7.0916],[110.4443,-7.0912],[110.4483,-7.0891],[110.4519,-7.0901],[110.4537,-7.0863],[110.4541,-7.079],[110.4553,-7.0786],[110.468,-7.0794],[110.4769,-7.0838],[110.4782,-7.0878],[110.4822,-7.0906],[110.4896,-7.0916],[110.4995,-7.0965],[110.4998,-7.1018],[110.5024,-7.1016],[110.5026,-7.1028],[110.4986,-7.1088],[110.4958,-7.1099],[110.5027,-7.1115],[110.5016,-7.1133],[110.4996,-7.1118],[110.499,-7.1189],[110.4948,-7.1256],[110.494,-7.1305],[110.496,-7.1322],[110.4927,-7.1337],[110.4911,-7.1323],[110.4866,-7.1355],[110.4825,-7.1342],[110.4824,-7.1355],[110.4789,-7.1319],[110.4626,-7.1284],[110.461,-7.1332],[110.4619,-7.135],[110.459,-7.1376],[110.4613,-7.1421],[110.4584,-7.1464],[110.4536,-7.148],[110.457,-7.1551],[110.4621,-7.1555],[110.4601,-7.1575],[110.4618,-7.1579],[110.4603,-7.1612],[110.4581,-7.1625],[110.4559,-7.1611],[110.4556,-7.1633],[110.4535,-7.1633],[110.4461,-7.1593],[110.4447,-7.162],[110.4438,-7.1613],[110.4444,-7.1628],[110.4428,-7.1623],[110.4382,-7.166],[110.4265,-7.167]]]]}},{"type":"Feature","properties":{"GID_3":"IDN.10.28.20_1","GID_0":"IDN","COUNTRY":"Indonesia","GID_1":"IDN.10_1","NAME_1":"JawaTengah","NL_NAME_1":"NA","GID_2":"IDN.10.28_1","NAME_2":"Semarang","NL_NAME_2":"NA","NAME_3":"WadukRawapening","VARNAME_3":"NA","NL_NAME_3":"NA","TYPE_3":"Kecamatan","ENGTYPE_3":"Sub-district","CC_3":"3322888","HASC_3":"NA"},"geometry":{"type":"MultiPolygon","coordinates":[[[[110.4225,-7.285],[110.4235,-7.2819],[110.4183,-7.2774],[110.4193,-7.2745],[110.4215,-7.274],[110.4195,-7.2708],[110.43,-7.2686],[110.429,-7.2663],[110.4365,-7.27],[110.4418,-7.2699],[110.4446,-7.2785],[110.4469,-7.2804],[110.4464,-7.2817],[110.4494,-7.2829],[110.4514,-7.2874],[110.4484,-7.2917],[110.4497,-7.2942],[110.4493,-7.3047],[110.4454,-7.306],[110.4439,-7.3047],[110.4438,-7.3063],[110.4395,-7.2971],[110.4373,-7.296],[110.4315,-7.2984],[110.4294,-7.3028],[110.4242,-7.3077],[110.4259,-7.3015],[110.4232,-7.2989],[110.419,-7.2991],[110.4168,-7.2921],[110.4152,-7.2911],[110.4161,-7.286],[110.4234,-7.2855],[110.4225,-7.285]]]]}}]}